NORAD_CAT_ID,OBJECT_NAME,OBJECT_TYPE,EPOCH,MEAN_MOTION,ECCENTRICITY,INCLINATION,RA_OF_ASC_NODE,ARG_OF_PERICENTER,MEAN_ANOMALY,BSTAR,MEAN_MOTION_DOT,MEAN_MOTION_DDOT,TLE_LINE0,TLE_LINE1,TLE_LINE2,SEMIMAJOR_AXIS,PERIOD,APOGEE,PERIGEE,DECAYED
52125.0,STARLINK-3727,PAYLOAD,2024-05-21 09:21:03,15.08838087,0.0001502,53.2158,139.8559,90.4496,269.6668,3.442e-05,2.6e-06,0.0,0 STARLINK-3727,1 52125U 22029AP  24142.38962007  .00000260  00000-0  34420-4 0  9993,2 52125  53.2158 139.8559 0001502  90.4496 269.6668 15.08838087121703,6917.886,95.438,540.79,538.712,0.0
52125.0,STARLINK-3727,PAYLOAD,2024-05-22 04:25:42,15.08819711,0.0001335,53.216,136.2878,31.1838,328.9233,-0.00012006,-2.197e-05,0.0,0 STARLINK-3727,1 52125U 22029AP  24143.18451662 -.00002197  00000-0 -12006-3 0  9990,2 52125  53.2160 136.2878 0001335  31.1838 328.9233 15.08819711121820,6917.942,95.439,540.731,538.884,0.0
52125.0,STARLINK-3727,PAYLOAD,2024-05-22 09:11:52,15.08813809,0.00013,53.2161,135.3961,86.7013,273.4128,-0.0001663,-2.932e-05,0.0,0 STARLINK-3727,1 52125U 22029AP  24143.38324269 -.00002932  00000-0 -16630-3 0  9998,2 52125  53.2161 135.3961 0001300  86.7013 273.4128 15.08813809121859,6917.96,95.439,540.725,538.926,0.0
52125.0,STARLINK-3727,PAYLOAD,2024-05-23 04:16:29,15.08828681,0.0001062,53.2162,131.8342,83.2871,276.8242,-4.1779e-05,-9.52e-06,0.0,0 STARLINK-3727,1 52125U 22029AP  24144.17811813 -.00000952  00000-0 -41779-4 0  9995,2 52125  53.2162 131.8342 0001062  83.2871 276.8242 15.08828681121974,6917.915,95.438,540.515,539.045,0.0
52125.0,STARLINK-3727,PAYLOAD,2024-05-23 05:51:52,15.08830393,0.0001445,53.2171,131.5351,102.7649,257.3504,4.8249e-06,-2.11e-06,0.0,0 STARLINK-3727,1 52125U 22029AP  24144.24435579 -.00000211  00000-0  48249-5 0  9991,2 52125  53.2171 131.5351 0001445 102.7649 257.3504 15.08830393121985,6917.91,95.438,540.774,538.775,0.0
52125.0,STARLINK-3727,PAYLOAD,2024-05-24 04:07:15,15.08838355,0.0001027,53.2164,127.3708,75.3269,284.7837,0.00033926,5.115e-05,0.0,0 STARLINK-3727,1 52125U 22029AP  24145.17170352  .00005115  00000-0  33926-3 0  9990,2 52125  53.2164 127.3708 0001027  75.3269 284.7837 15.08838355122121,6917.885,95.438,540.461,539.04,0.0
52125.0,STARLINK-3727,PAYLOAD,2024-05-24 08:53:24,15.08844149,0.000101,53.2159,126.4747,81.1568,278.9539,0.00038346,5.821e-05,0.0,0 STARLINK-3727,1 52125U 22029AP  24145.37042033  .00005821  00000-0  38346-3 0  9991,2 52125  53.2159 126.4747 0001010  81.1568 278.9539 15.08844149122152,6917.868,95.437,540.431,539.034,0.0
52125.0,STARLINK-3727,PAYLOAD,2024-05-25 03:58:02,15.08844613,0.0001225,53.2165,122.9034,109.4497,250.6628,8.2757e-05,1.03e-05,0.0,0 STARLINK-3727,1 52125U 22029AP  24146.16530519  .00001030  00000-0  82757-4 0  9994,2 52125  53.2165 122.9034 0001225 109.4497 250.6628 15.08844613122277,6917.866,95.437,540.579,538.884,0.0
52125.0,STARLINK-3727,PAYLOAD,2024-05-25 08:44:11,15.08844768,0.0001403,53.2168,122.0117,118.195,241.9184,7.2378e-05,8.64e-06,0.0,0 STARLINK-3727,1 52125U 22029AP  24146.36402373  .00000864  00000-0  72378-4 0  9994,2 52125  53.2168 122.0117 0001403 118.1950 241.9184 15.08844768122307,6917.866,95.437,540.701,538.76,0.0
52125.0,STARLINK-3727,PAYLOAD,2024-05-26 05:24:12,15.08845286,0.0001107,53.2173,118.1491,86.4104,273.7014,-6.4979e-05,-1.322e-05,0.0,0 STARLINK-3727,1 52125U 22029AP  24147.22514633 -.00001322  00000-0 -64979-4 0  9993,2 52125  53.2173 118.1491 0001107  86.4104 273.7014 15.08845286122438,6917.864,95.437,540.495,538.963,0.0
52125.0,STARLINK-3727,PAYLOAD,2024-05-27 06:50:22,15.08846907,0.0001202,53.2172,113.3907,100.9638,259.1489,3.6891e-05,2.99e-06,0.0,0 STARLINK-3727,1 52125U 22029AP  24148.28498064  .00000299  00000-0  36891-4 0  9991,2 52125  53.2172 113.3907 0001202 100.9638 259.1489 15.08846907122598,6917.859,95.437,540.556,538.893,0.0
52125.0,STARLINK-3727,PAYLOAD,2024-05-27 14:47:18,15.08842268,0.0001329,53.218,111.8989,97.2034,262.9109,8.712e-05,1.099e-05,0.0,0 STARLINK-3727,1 52125U 22029AP  24148.61618130  .00001099  00000-0  87120-4 0  9996,2 52125  53.2180 111.8989 0001329  97.2034 262.9109 15.08842268122641,6917.873,95.437,540.658,538.819,0.0
52125.0,STARLINK-3727,PAYLOAD,2024-05-28 03:30:23,15.08835199,0.0001292,53.2176,109.5233,90.0165,270.0975,4.2305e-05,3.85e-06,0.0,0 STARLINK-3727,1 52125U 22029AP  24149.14610941  .00000385  00000-0  42305-4 0  9990,2 52125  53.2176 109.5233 0001292  90.0165 270.0975 15.08835199122722,6917.895,95.438,540.654,538.866,0.0
52125.0,STARLINK-3727,PAYLOAD,2024-05-28 20:59:38,15.08848533,0.0001319,53.2174,106.2539,88.157,271.9573,-8.9007e-05,-1.705e-05,0.0,0 STARLINK-3727,1 52125U 22029AP  24149.87474815 -.00001705  00000-0 -89007-4 0  9997,2 52125  53.2174 106.2539 0001319  88.1570 271.9573 15.08848533122833,6917.854,95.437,540.632,538.807,0.0
52125.0,STARLINK-3727,PAYLOAD,2024-05-29 06:31:56,15.08844399,0.0001374,53.2172,104.4699,84.2106,275.9042,6.5598e-05,7.56e-06,0.0,0 STARLINK-3727,1 52125U 22029AP  24150.27218368  .00000756  00000-0  65598-4 0  9994,2 52125  53.2172 104.4699 0001374  84.2106 275.9042 15.08844399122898,6917.867,95.437,540.682,538.781,0.0
52125.0,STARLINK-3727,PAYLOAD,2024-05-30 03:11:57,15.0884498,0.0001204,53.2169,100.6035,87.9249,272.1881,5.7592e-06,-1.96e-06,0.0,0 STARLINK-3727,1 52125U 22029AP  24151.13330593 -.00000196  00000-0  57592-5 0  9990,2 52125  53.2169 100.6035 0001204  87.9249 272.1881 15.08844980123028,6917.865,95.437,540.563,538.897,0.0
52125.0,STARLINK-3727,PAYLOAD,2024-05-31 03:02:44,15.08847442,0.0001602,53.2186,96.1433,105.4263,254.6906,8.1285e-05,1.006e-05,0.0,0 STARLINK-3727,1 52125U 22029AP  24152.12690054  .00001006  00000-0  81285-4 0  9996,2 52125  53.2186  96.1433 0001602 105.4263 254.6906 15.08847442123177,6917.858,95.437,540.831,538.614,0.0
52125.0,STARLINK-3727,PAYLOAD,2024-05-31 06:13:30,15.08848064,0.0001559,53.2183,95.5478,104.7137,255.4028,8.5211e-05,1.069e-05,0.0,0 STARLINK-3727,1 52125U 22029AP  24152.25937953  .00001069  00000-0  85211-4 0  9994,2 52125  53.2183  95.5478 0001559 104.7137 255.4028 15.08848064123196,6917.856,95.437,540.799,538.642,0.0
52125.0,STARLINK-3727,PAYLOAD,2024-06-01 02:53:31,15.08843258,0.0001197,53.217,91.6816,85.1891,274.9238,4.2467e-05,3.88e-06,0.0,0 STARLINK-3727,1 52125U 22029AP  24153.12050342  .00000388  00000-0  42467-4 0  9998,2 52125  53.2170  91.6816 0001197  85.1891 274.9238 15.08843258123326,6917.87,95.437,540.563,538.907,0.0
52125.0,STARLINK-3727,PAYLOAD,2024-06-01 12:25:50,15.08839551,0.0001205,53.2171,89.8982,85.1144,274.9986,2.6073e-05,1.27e-06,0.0,0 STARLINK-3727,1 52125U 22029AP  24153.51794630  .00000127  00000-0  26073-4 0  9992,2 52125  53.2171  89.8982 0001205  85.1144 274.9986 15.08839551123388,6917.882,95.438,540.58,538.913,0.0
52125.0,STARLINK-3727,PAYLOAD,2024-06-02 02:44:19,15.08836411,0.0001204,53.2181,87.2258,89.7305,270.3825,-8.9209e-05,-1.707e-05,0.0,0 STARLINK-3727,1 52125U 22029AP  24154.11411354 -.00001707  00000-0 -89209-4 0  9995,2 52125  53.2181  87.2258 0001204  89.7305 270.3825 15.08836411123479,6917.891,95.438,540.589,538.923,0.0
52125.0,STARLINK-3727,PAYLOAD,2024-06-02 12:16:38,15.0883777,0.0001395,53.219,85.4414,78.9866,281.1283,-5.2618e-05,-1.125e-05,0.0,0 STARLINK-3727,1 52125U 22029AP  24154.51155364 -.00001125  00000-0 -52618-4 0  9993,2 52125  53.2190  85.4414 0001395  78.9866 281.1283 15.08837770123530,6917.887,95.438,540.717,538.787,0.0
52125.0,STARLINK-3727,PAYLOAD,2024-06-02 20:13:33,15.0883782,0.0001147,53.2186,83.9547,95.342,264.7703,2.4285e-05,9.9e-07,0.0,0 STARLINK-3727,1 52125U 22029AP  24154.84275285  .00000099  00000-0  24285-4 0  9990,2 52125  53.2186  83.9547 0001147  95.3420 264.7703 15.08837820123584,6917.887,95.438,540.546,538.959,0.0
52125.0,STARLINK-3727,PAYLOAD,2024-06-03 04:10:28,15.08846234,0.000118,53.219,82.4685,98.1725,261.9401,9.8422e-05,1.279e-05,0.0,0 STARLINK-3727,1 52125U 22029AP  24155.17394633  .00001279  00000-0  98422-4 0  9991,2 52125  53.2190  82.4685 0001180  98.1725 261.9401 15.08846234123631,6917.861,95.437,540.543,538.91,0.0
52125.0,STARLINK-3727,PAYLOAD,2024-06-03 12:07:24,15.08846148,0.000122,53.2189,80.9814,97.3958,262.7173,7.4292e-05,8.95e-06,0.0,0 STARLINK-3727,1 52125U 22029AP  24155.50514687  .00000895  00000-0  74292-4 0  9993,2 52125  53.2189  80.9814 0001220  97.3958 262.7173 15.08846148123684,6917.862,95.437,540.571,538.883,0.0
52125.0,STARLINK-3727,PAYLOAD,2024-06-03 20:04:19,15.08856619,0.0001274,53.2181,79.4939,88.8006,271.3132,0.00031189,4.682e-05,0.0,0 STARLINK-3727,1 52125U 22029AP  24155.83633333  .00004682  00000-0  31189-3 0  9994,2 52125  53.2181  79.4939 0001274  88.8006 271.3132 15.08856619123736,6917.83,95.437,540.576,538.813,0.0
52125.0,STARLINK-3727,PAYLOAD,2024-06-04 04:01:13,15.08873086,0.0001207,53.2179,78.0024,76.1189,283.9937,0.00047268,7.25e-05,0.0,0 STARLINK-3727,1 52125U 22029AP  24156.16751856  .00007250  00000-0  47268-3 0  9991,2 52125  53.2179  78.0024 0001207  76.1189 283.9937 15.08873086123785,6917.779,95.435,540.479,538.809,0.0
52125.0,STARLINK-3727,PAYLOAD,2024-06-04 18:19:43,15.08839805,0.0001559,53.2197,75.3294,92.8015,267.3156,-5.7881e-05,-1.209e-05,0.0,0 STARLINK-3727,1 52125U 22029AP  24156.76370370 -.00001209  00000-0 -57881-4 0  9998,2 52125  53.2197  75.3294 0001559  92.8015 267.3156 15.08839805123877,6917.881,95.438,540.824,538.667,0.0
52125.0,STARLINK-3727,PAYLOAD,2024-06-04 23:05:53,15.08837265,0.0001471,53.2197,74.4374,87.7711,272.345,-8.7089e-05,-1.674e-05,0.0,0 STARLINK-3727,1 52125U 22029AP  24156.96242526 -.00001674  00000-0 -87089-4 0  9990,2 52125  53.2197  74.4374 0001471  87.7711 272.3450 15.08837265123900,6917.889,95.438,540.771,538.736,0.0
52125.0,STARLINK-3727,PAYLOAD,2024-06-05 11:48:58,15.088353,0.0001415,53.2183,72.0586,78.6011,281.514,-0.00013295,-2.403e-05,0.0,0 STARLINK-3727,1 52125U 22029AP  24157.49234736 -.00002403  00000-0 -13295-3 0  9991,2 52125  53.2183  72.0586 0001415  78.6011 281.5140 15.08835300123988,6917.895,95.438,540.739,538.781,0.0
